<?xml version="1.0" encoding="UTF-8"?>
<ndm xmlns:xsi="http://www.w3.org/2001/XMLSchema-instance" xsi:noNamespaceSchemaLocation="https://sanaregistry.org/r/ndmxml_unqualified/ndmxml-2.0.0-master-2.0.xsd">
<omm id="CCSDS_OMM_VERS" version="2.0">
<header><CREATION_DATE/><ORIGINATOR/></header><body><segment><metadata><OBJECT_NAME>KUIPER-00095</OBJECT_NAME><OBJECT_ID>2025-171C</OBJECT_ID><CENTER_NAME>EARTH</CENTER_NAME><REF_FRAME>TEME</REF_FRAME><TIME_SYSTEM>UTC</TIME_SYSTEM><MEAN_ELEMENT_THEORY>SGP4</MEAN_ELEMENT_THEORY></metadata><data><meanElements><EPOCH>2025-10-22T08:23:55.416480</EPOCH><MEAN_MOTION>15.37536673</MEAN_MOTION><ECCENTRICITY>.00048931</ECCENTRICITY><INCLINATION>51.8779</INCLINATION><RA_OF_ASC_NODE>58.0938</RA_OF_ASC_NODE><ARG_OF_PERICENTER>41.7501</ARG_OF_PERICENTER><MEAN_ANOMALY>318.3858</MEAN_ANOMALY></meanElements><tleParameters><EPHEMERIS_TYPE>0</EPHEMERIS_TYPE><CLASSIFICATION_TYPE>U</CLASSIFICATION_TYPE><NORAD_CAT_ID>65134</NORAD_CAT_ID><ELEMENT_SET_NO>999</ELEMENT_SET_NO><REV_AT_EPOCH>1229</REV_AT_EPOCH><BSTAR>.15568438E-2</BSTAR><MEAN_MOTION_DOT>.58306E-3</MEAN_MOTION_DOT><MEAN_MOTION_DDOT>0</MEAN_MOTION_DDOT></tleParameters></data></segment></body></omm>
<omm id="CCSDS_OMM_VERS" version="2.0">
<header><CREATION_DATE/><ORIGINATOR/></header><body><segment><metadata><OBJECT_NAME>KUIPER-00096</OBJECT_NAME><OBJECT_ID>2025-171D</OBJECT_ID><CENTER_NAME>EARTH</CENTER_NAME><REF_FRAME>TEME</REF_FRAME><TIME_SYSTEM>UTC</TIME_SYSTEM><MEAN_ELEMENT_THEORY>SGP4</MEAN_ELEMENT_THEORY></metadata><data><meanElements><EPOCH>2025-10-23T00:00:02.000160</EPOCH><MEAN_MOTION>15.32203300</MEAN_MOTION><ECCENTRICITY>.00064048</ECCENTRICITY><INCLINATION>51.8788</INCLINATION><RA_OF_ASC_NODE>54.9708</RA_OF_ASC_NODE><ARG_OF_PERICENTER>32.9915</ARG_OF_PERICENTER><MEAN_ANOMALY>317.8167</MEAN_ANOMALY></meanElements><tleParameters><EPHEMERIS_TYPE>0</EPHEMERIS_TYPE><CLASSIFICATION_TYPE>U</CLASSIFICATION_TYPE><NORAD_CAT_ID>65135</NORAD_CAT_ID><ELEMENT_SET_NO>999</ELEMENT_SET_NO><REV_AT_EPOCH>523</REV_AT_EPOCH><BSTAR>-.11294886E-3</BSTAR><MEAN_MOTION_DOT>-.3936E-4</MEAN_MOTION_DOT><MEAN_MOTION_DDOT>0</MEAN_MOTION_DDOT></tleParameters></data></segment></body></omm>
<omm id="CCSDS_OMM_VERS" version="2.0">
<header><CREATION_DATE/><ORIGINATOR/></header><body><segment><metadata><OBJECT_NAME>KUIPER-00097</OBJECT_NAME><OBJECT_ID>2025-171E</OBJECT_ID><CENTER_NAME>EARTH</CENTER_NAME><REF_FRAME>TEME</REF_FRAME><TIME_SYSTEM>UTC</TIME_SYSTEM><MEAN_ELEMENT_THEORY>SGP4</MEAN_ELEMENT_THEORY></metadata><data><meanElements><EPOCH>2025-10-23T00:00:02.000160</EPOCH><MEAN_MOTION>15.23034579</MEAN_MOTION><ECCENTRICITY>.00054475</ECCENTRICITY><INCLINATION>51.8844</INCLINATION><RA_OF_ASC_NODE>55.7176</RA_OF_ASC_NODE><ARG_OF_PERICENTER>28.3327</ARG_OF_PERICENTER><MEAN_ANOMALY>283.2677</MEAN_ANOMALY></meanElements><tleParameters><EPHEMERIS_TYPE>0</EPHEMERIS_TYPE><CLASSIFICATION_TYPE>U</CLASSIFICATION_TYPE><NORAD_CAT_ID>65136</NORAD_CAT_ID><ELEMENT_SET_NO>999</ELEMENT_SET_NO><REV_AT_EPOCH>555</REV_AT_EPOCH><BSTAR>-.41278999E-1</BSTAR><MEAN_MOTION_DOT>-.914404E-2</MEAN_MOTION_DOT><MEAN_MOTION_DDOT>0</MEAN_MOTION_DDOT></tleParameters></data></segment></body></omm>
<omm id="CCSDS_OMM_VERS" version="2.0">
<header><CREATION_DATE/><ORIGINATOR/></header><body><segment><metadata><OBJECT_NAME>KUIPER-00098</OBJECT_NAME><OBJECT_ID>2025-171F</OBJECT_ID><CENTER_NAME>EARTH</CENTER_NAME><REF_FRAME>TEME</REF_FRAME><TIME_SYSTEM>UTC</TIME_SYSTEM><MEAN_ELEMENT_THEORY>SGP4</MEAN_ELEMENT_THEORY></metadata><data><meanElements><EPOCH>2025-10-23T00:00:02.000160</EPOCH><MEAN_MOTION>15.18166871</MEAN_MOTION><ECCENTRICITY>.00055528</ECCENTRICITY><INCLINATION>51.8867</INCLINATION><RA_OF_ASC_NODE>56.1007</RA_OF_ASC_NODE><ARG_OF_PERICENTER>25.0262</ARG_OF_PERICENTER><MEAN_ANOMALY>137.4394</MEAN_ANOMALY></meanElements><tleParameters><EPHEMERIS_TYPE>0</EPHEMERIS_TYPE><CLASSIFICATION_TYPE>U</CLASSIFICATION_TYPE><NORAD_CAT_ID>65137</NORAD_CAT_ID><ELEMENT_SET_NO>999</ELEMENT_SET_NO><REV_AT_EPOCH>586</REV_AT_EPOCH><BSTAR>-.27860838E-1</BSTAR><MEAN_MOTION_DOT>-.542292E-2</MEAN_MOTION_DOT><MEAN_MOTION_DDOT>0</MEAN_MOTION_DDOT></tleParameters></data></segment></body></omm>
<omm id="CCSDS_OMM_VERS" version="2.0">
<header><CREATION_DATE/><ORIGINATOR/></header><body><segment><metadata><OBJECT_NAME>KUIPER-00099</OBJECT_NAME><OBJECT_ID>2025-171G</OBJECT_ID><CENTER_NAME>EARTH</CENTER_NAME><REF_FRAME>TEME</REF_FRAME><TIME_SYSTEM>UTC</TIME_SYSTEM><MEAN_ELEMENT_THEORY>SGP4</MEAN_ELEMENT_THEORY></metadata><data><meanElements><EPOCH>2025-10-22T17:06:34.970400</EPOCH><MEAN_MOTION>15.38133330</MEAN_MOTION><ECCENTRICITY>.00069751</ECCENTRICITY><INCLINATION>51.8762</INCLINATION><RA_OF_ASC_NODE>56.0454</RA_OF_ASC_NODE><ARG_OF_PERICENTER>21.6204</ARG_OF_PERICENTER><MEAN_ANOMALY>338.5076</MEAN_ANOMALY></meanElements><tleParameters><EPHEMERIS_TYPE>0</EPHEMERIS_TYPE><CLASSIFICATION_TYPE>U</CLASSIFICATION_TYPE><NORAD_CAT_ID>65138</NORAD_CAT_ID><ELEMENT_SET_NO>999</ELEMENT_SET_NO><REV_AT_EPOCH>1234</REV_AT_EPOCH><BSTAR>.54283288E-3</BSTAR><MEAN_MOTION_DOT>.20375E-3</MEAN_MOTION_DOT><MEAN_MOTION_DDOT>0</MEAN_MOTION_DDOT></tleParameters></data></segment></body></omm>
<omm id="CCSDS_OMM_VERS" version="2.0">
<header><CREATION_DATE/><ORIGINATOR/></header><body><segment><metadata><OBJECT_NAME>KUIPER-00100</OBJECT_NAME><OBJECT_ID>2025-171H</OBJECT_ID><CENTER_NAME>EARTH</CENTER_NAME><REF_FRAME>TEME</REF_FRAME><TIME_SYSTEM>UTC</TIME_SYSTEM><MEAN_ELEMENT_THEORY>SGP4</MEAN_ELEMENT_THEORY></metadata><data><meanElements><EPOCH>2025-10-22T17:21:24.806592</EPOCH><MEAN_MOTION>15.38039791</MEAN_MOTION><ECCENTRICITY>.00056996</ECCENTRICITY><INCLINATION>51.8765</INCLINATION><RA_OF_ASC_NODE>56.1000</RA_OF_ASC_NODE><ARG_OF_PERICENTER>19.2146</ARG_OF_PERICENTER><MEAN_ANOMALY>340.9055</MEAN_ANOMALY></meanElements><tleParameters><EPHEMERIS_TYPE>0</EPHEMERIS_TYPE><CLASSIFICATION_TYPE>U</CLASSIFICATION_TYPE><NORAD_CAT_ID>65139</NORAD_CAT_ID><ELEMENT_SET_NO>999</ELEMENT_SET_NO><REV_AT_EPOCH>1234</REV_AT_EPOCH><BSTAR>.18086104E-2</BSTAR><MEAN_MOTION_DOT>.69027E-3</MEAN_MOTION_DOT><MEAN_MOTION_DDOT>0</MEAN_MOTION_DDOT></tleParameters></data></segment></body></omm>
<omm id="CCSDS_OMM_VERS" version="2.0">
<header><CREATION_DATE/><ORIGINATOR/></header><body><segment><metadata><OBJECT_NAME>KUIPER-00102</OBJECT_NAME><OBJECT_ID>2025-171J</OBJECT_ID><CENTER_NAME>EARTH</CENTER_NAME><REF_FRAME>TEME</REF_FRAME><TIME_SYSTEM>UTC</TIME_SYSTEM><MEAN_ELEMENT_THEORY>SGP4</MEAN_ELEMENT_THEORY></metadata><data><meanElements><EPOCH>2025-10-21T13:40:44.791968</EPOCH><MEAN_MOTION>15.37610362</MEAN_MOTION><ECCENTRICITY>.0005422</ECCENTRICITY><INCLINATION>51.8743</INCLINATION><RA_OF_ASC_NODE>61.8658</RA_OF_ASC_NODE><ARG_OF_PERICENTER>24.0208</ARG_OF_PERICENTER><MEAN_ANOMALY>336.1031</MEAN_ANOMALY></meanElements><tleParameters><EPHEMERIS_TYPE>0</EPHEMERIS_TYPE><CLASSIFICATION_TYPE>U</CLASSIFICATION_TYPE><NORAD_CAT_ID>65140</NORAD_CAT_ID><ELEMENT_SET_NO>999</ELEMENT_SET_NO><REV_AT_EPOCH>1216</REV_AT_EPOCH><BSTAR>.33207E-2</BSTAR><MEAN_MOTION_DOT>.126247E-2</MEAN_MOTION_DOT><MEAN_MOTION_DDOT>0</MEAN_MOTION_DDOT></tleParameters></data></segment></body></omm>
<omm id="CCSDS_OMM_VERS" version="2.0">
<header><CREATION_DATE/><ORIGINATOR/></header><body><segment><metadata><OBJECT_NAME>KUIPER-00103</OBJECT_NAME><OBJECT_ID>2025-171K</OBJECT_ID><CENTER_NAME>EARTH</CENTER_NAME><REF_FRAME>TEME</REF_FRAME><TIME_SYSTEM>UTC</TIME_SYSTEM><MEAN_ELEMENT_THEORY>SGP4</MEAN_ELEMENT_THEORY></metadata><data><meanElements><EPOCH>2025-10-23T00:00:02.000160</EPOCH><MEAN_MOTION>14.94281100</MEAN_MOTION><ECCENTRICITY>.00064856</ECCENTRICITY><INCLINATION>51.8950</INCLINATION><RA_OF_ASC_NODE>60.0181</RA_OF_ASC_NODE><ARG_OF_PERICENTER>44.6095</ARG_OF_PERICENTER><MEAN_ANOMALY>353.1855</MEAN_ANOMALY></meanElements><tleParameters><EPHEMERIS_TYPE>0</EPHEMERIS_TYPE><CLASSIFICATION_TYPE>U</CLASSIFICATION_TYPE><NORAD_CAT_ID>65141</NORAD_CAT_ID><ELEMENT_SET_NO>999</ELEMENT_SET_NO><REV_AT_EPOCH>576</REV_AT_EPOCH><BSTAR>-.47420721E-2</BSTAR><MEAN_MOTION_DOT>-.51346E-3</MEAN_MOTION_DOT><MEAN_MOTION_DDOT>0</MEAN_MOTION_DDOT></tleParameters></data></segment></body></omm>

</ndm>
