KUIPER-00095            
1 65134U 25171C   25295.34994695  .00058306  00000+0  15568-2 0  9995
2 65134  51.8779  58.0938 0004893  41.7501 318.3858 15.37536673 12299
KUIPER-00096            
1 65135U 25171D   25296.00002315 -.00003936  00000+0 -11295-3 0  9994
2 65135  51.8788  54.9708 0006404  32.9915 317.8167 15.32203300  5237
KUIPER-00097            
1 65136U 25171E   25296.00002315 -.00914404  00000+0 -41279-1 0  9999
2 65136  51.8844  55.7176 0005447  28.3327 283.2677 15.23034579  5558
KUIPER-00098            
1 65137U 25171F   25296.00002315 -.00542292  00000+0 -27861-1 0  9993
2 65137  51.8867  56.1007 0005552  25.0262 137.4394 15.18166871  5866
KUIPER-00099            
1 65138U 25171G   25295.71290475  .00020375  00000+0  54283-3 0  9998
2 65138  51.8762  56.0454 0006975  21.6204 338.5076 15.38133330 12342
KUIPER-00100            
1 65139U 25171H   25295.72320378  .00069027  00000+0  18086-2 0  9993
2 65139  51.8765  56.1000 0005699  19.2146 340.9055 15.38039791 12344
KUIPER-00102            
1 65140U 25171J   25294.56996287  .00126247  00000+0  33207-2 0  9994
2 65140  51.8743  61.8658 0005422  24.0208 336.1031 15.37610362 12160
KUIPER-00103            
1 65141U 25171K   25296.00002315 -.00051346  00000+0 -47421-2 0  9998
2 65141  51.8950  60.0181 0006485  44.6095 353.1855 14.94281100  5762
